GPS BIIR-2  (PRN 13)    
1 24876U 97035A   26094.41177889  .00000015  00000+0  00000+0 0  9991
2 24876  55.9542 101.4579 0098969  56.1420 304.8226  2.00564009210470
GPS BIIR-5  (PRN 22)    
1 26407U 00040A   26095.73893036  .00000008  00000+0  00000+0 0  9990
2 26407  54.8673 218.0384 0122119 302.5079 230.6033  2.00569364188494
GPS BIIR-8  (PRN 16)    
1 27663U 03005A   26095.76246124  .00000008  00000+0  00000+0 0  9992
2 27663  54.8986 217.8451 0148450  52.8937 272.6776  2.00564553169856
GPS BIIR-11 (PRN 19)    
1 28190U 04009A   26093.34366605 -.00000035  00000+0  00000+0 0  9993
2 28190  54.8926 278.7093 0112444 169.9755   4.1137  2.00557195161446
GPS BIIR-13 (PRN 02)    
1 28474U 04045A   26095.75422909 -.00000082  00000+0  00000+0 0  9997
2 28474  55.1768 327.8146 0170337 314.0563 225.7789  2.00575150156976
GPS BIIRM-1 (PRN 17)    
1 28874U 05038A   26095.81134223 -.00000014  00000+0  00000+0 0  9995
2 28874  54.9383 276.0964 0128061 295.7126 245.5600  2.00570845150387
GPS BIIRM-2 (PRN 31)    
1 29486U 06042A   26095.22099612  .00000023  00000+0  00000+0 0  9997
2 29486  54.6997 154.2366 0106277  53.2094 319.1647  2.00573913142934
GPS BIIRM-3 (PRN 12)    
1 29601U 06052A   26095.62317056  .00000008  00000+0  00000+0 0  9999
2 29601  54.9491 216.8814 0087069  89.9450 271.0399  2.00553890141950
GPS BIIRM-4 (PRN 15)    
1 32260U 07047A   26094.93149622 -.00000013  00000+0  00000+0 0  9991
2 32260  54.0414  83.0831 0164095  86.2491 275.6217  2.00559152135346
GPS BIIRM-5 (PRN 29)    
1 32384U 07062A   26095.00291115 -.00000022  00000+0  00000+0 0  9999
2 32384  55.0910 277.0926 0033911 161.3571  17.5151  2.00555625134048
GPS BIIRM-6 (PRN 07)    
1 32711U 08012A   26095.34686862  .00000022  00000+0  00000+0 0  9992
2 32711  54.4849 152.8355 0208740 246.7478 111.1181  2.00570393132298
GPS BIIRM-8 (PRN 05)    
1 35752U 09043A   26095.83965606 -.00000085  00000+0  00000+0 0  9995
2 35752  56.1680  30.2938 0052484  80.9340 289.3546  2.00558490121916
GPS BIIF-1  (PRN 25)    
1 36585U 10022A   26095.16725920  .00000006  00000+0  00000+0 0  9990
2 36585  54.2820 211.5026 0126957  66.0332 295.6559  2.00558893116130
GPS BIIF-3  (PRN 24)    
1 38833U 12053A   26095.52545654  .00000021  00000+0  00000+0 0  9995
2 38833  53.5703 146.5768 0177431  64.9866 296.9263  2.00566362 97989
GPS BIIF-4  (PRN 27)    
1 39166U 13023A   26090.90349851 -.00000034  00000+0  00000+0 0  9996
2 39166  54.5658 272.1198 0141962  50.3418 310.8851  2.00563989 94331
GPS BIIF-5  (PRN 30)    
1 39533U 14008A   26095.39069735  .00000020  00000+0  00000+0 0  9990
2 39533  53.6411 152.2899 0083298 229.4222 129.9278  2.00555200 88221
GPS BIIF-6  (PRN 06)    
1 39741U 14026A   26095.66718280 -.00000088  00000+0  00000+0 0  9992
2 39741  56.5313 334.3423 0039349 326.1202  33.6769  2.00566500 87086
